{
  "type": "FeatureCollection",
  "features": [
    {
      "type": "Feature",
      "properties": {
        "norad_id": 31311,
        "name": "FENGYUN 1C DEB",
        "group": "fengyun-1c-debris",
        "lat": 71.89865018670835,
        "lon": -87.50396429385697,
        "alt_km": 772.2835914264988,
        "timestamp": "2025-12-08T17:43:05.212995+00:00",
        "meta_object_name": "FENGYUN 1C DEB",
        "meta_object_id": "1999-025BPP",
        "meta_epoch": "2025-12-08T03:55:34.982976",
        "meta_mean_motion": 14.29683567,
        "meta_eccentricity": 0.00190167,
        "meta_inclination": 98.8529,
        "meta_ra_of_asc_node": 63.4357,
        "meta_arg_of_pericenter": 100.0537,
        "meta_mean_anomaly": 289.7341,
        "meta_ephemeris_type": 0,
        "meta_classification_type": "U",
        "meta_norad_cat_id": 31311,
        "meta_element_set_no": 999,
        "meta_rev_at_epoch": 96156,
        "meta_bstar": 0.0023679551,
        "meta_mean_motion_dot": 6.042e-05,
        "meta_mean_motion_ddot": 0,
        "tle_line1": "1 31311U 99025BPP 25342.16359934  .00006042  00000+0  23680-2 0  9992",
        "tle_line2": "2 31311  98.8529  63.4357 0019016 100.0537 289.7341 14.29683567961565"
      },
      "geometry": {
        "type": "Point",
        "coordinates": [
          -87.50396429385697,
          71.89865018670835
        ]
      }
    },
    {
      "type": "Feature",
      "properties": {
        "norad_id": 31312,
        "name": "FENGYUN 1C DEB",
        "group": "fengyun-1c-debris",
        "lat": -35.10677220505166,
        "lon": -25.180108145870534,
        "alt_km": 886.8644867730036,
        "timestamp": "2025-12-08T17:43:05.213005+00:00",
        "meta_object_name": "FENGYUN 1C DEB",
        "meta_object_id": "1999-025BPQ",
        "meta_epoch": "2025-12-01T11:40:09.596352",
        "meta_mean_motion": 14.00893121,
        "meta_eccentricity": 0.00581856,
        "meta_inclination": 98.8574,
        "meta_ra_of_asc_node": 321.4953,
        "meta_arg_of_pericenter": 267.9693,
        "meta_mean_anomaly": 222.3029,
        "meta_ephemeris_type": 0,
        "meta_classification_type": "U",
        "meta_norad_cat_id": 31312,
        "meta_element_set_no": 999,
        "meta_rev_at_epoch": 94988,
        "meta_bstar": 0.00061208287,
        "meta_mean_motion_dot": 8.85e-06,
        "meta_mean_motion_ddot": 0,
        "tle_line1": "1 31312U 99025BPQ 25335.48622218  .00000885  00000+0  61208-3 0  9996",
        "tle_line2": "2 31312  98.8574 321.4953 0058185 267.9693 222.3029 14.00893121949886"
      },
      "geometry": {
        "type": "Point",
        "coordinates": [
          -25.180108145870534,
          -35.10677220505166
        ]
      }
    },
    {
      "type": "Feature",
      "properties": {
        "norad_id": 31313,
        "name": "FENGYUN 1C DEB",
        "group": "fengyun-1c-debris",
        "lat": 60.104118845889495,
        "lon": -129.4968217480841,
        "alt_km": 832.8612209475132,
        "timestamp": "2025-12-08T17:43:05.213015+00:00",
        "meta_object_name": "FENGYUN 1C DEB",
        "meta_object_id": "1999-025BPR",
        "meta_epoch": "2025-12-07T11:02:13.226784",
        "meta_mean_motion": 14.22263344,
        "meta_eccentricity": 0.00443954,
        "meta_inclination": 99.015,
        "meta_ra_of_asc_node": 245.2258,
        "meta_arg_of_pericenter": 196.4583,
        "meta_mean_anomaly": 163.5155,
        "meta_ephemeris_type": 0,
        "meta_classification_type": "U",
        "meta_norad_cat_id": 31313,
        "meta_element_set_no": 999,
        "meta_rev_at_epoch": 96987,
        "meta_bstar": 0.00053787088,
        "meta_mean_motion_dot": 1.16e-05,
        "meta_mean_motion_ddot": 0,
        "tle_line1": "1 31313U 99025BPR 25341.45987531  .00001160  00000+0  53787-3 0  9993",
        "tle_line2": "2 31313  99.0150 245.2258 0044395 196.4583 163.5155 14.22263344969872"
      },
      "geometry": {
        "type": "Point",
        "coordinates": [
          -129.4968217480841,
          60.104118845889495
        ]
      }
    },
    {
      "type": "Feature",
      "properties": {
        "norad_id": 31314,
        "name": "FENGYUN 1C DEB",
        "group": "fengyun-1c-debris",
        "lat": 0.5623336438117933,
        "lon": -23.228265673268442,
        "alt_km": 822.738387292201,
        "timestamp": "2025-12-08T17:43:05.213026+00:00",
        "meta_object_name": "FENGYUN 1C DEB",
        "meta_object_id": "1999-025BPS",
        "meta_epoch": "2025-12-06T05:53:33.958752",
        "meta_mean_motion": 14.04913607,
        "meta_eccentricity": 0.00791603,
        "meta_inclination": 98.8218,
        "meta_ra_of_asc_node": 334.4356,
        "meta_arg_of_pericenter": 15.6231,
        "meta_mean_anomaly": 344.7353,
        "meta_ephemeris_type": 0,
        "meta_classification_type": "U",
        "meta_norad_cat_id": 31314,
        "meta_element_set_no": 999,
        "meta_rev_at_epoch": 60723,
        "meta_bstar": 0.00045752491,
        "meta_mean_motion_dot": 7.13e-06,
        "meta_mean_motion_ddot": 0,
        "tle_line1": "1 31314U 99025BPS 25340.24553193  .00000713  00000+0  45752-3 0  9999",
        "tle_line2": "2 31314  98.8218 334.4356 0079160  15.6231 344.7353 14.04913607607231"
      },
      "geometry": {
        "type": "Point",
        "coordinates": [
          -23.228265673268442,
          0.5623336438117933
        ]
      }
    },
    {
      "type": "Feature",
      "properties": {
        "norad_id": 31319,
        "name": "FENGYUN 1C DEB",
        "group": "fengyun-1c-debris",
        "lat": -74.6883138014785,
        "lon": -83.5636648099493,
        "alt_km": 1111.0614473016185,
        "timestamp": "2025-12-08T17:43:05.213036+00:00",
        "meta_object_name": "FENGYUN 1C DEB",
        "meta_object_id": "1999-025BPX",
        "meta_epoch": "2025-12-07T23:12:51.181056",
        "meta_mean_motion": 13.75825674,
        "meta_eccentricity": 0.01706175,
        "meta_inclination": 98.8308,
        "meta_ra_of_asc_node": 241.1253,
        "meta_arg_of_pericenter": 99.5979,
        "meta_mean_anomaly": 326.4938,
        "meta_ephemeris_type": 0,
        "meta_classification_type": "U",
        "meta_norad_cat_id": 31319,
        "meta_element_set_no": 999,
        "meta_rev_at_epoch": 93622,
        "meta_bstar": 0.00024663966,
        "meta_mean_motion_dot": 2.27e-06,
        "meta_mean_motion_ddot": 0,
        "tle_line1": "1 31319U 99025BPX 25341.96725904  .00000227  00000+0  24664-3 0  9994",
        "tle_line2": "2 31319  98.8308 241.1253 0170617  99.5979 326.4938 13.75825674936228"
      },
      "geometry": {
        "type": "Point",
        "coordinates": [
          -83.5636648099493,
          -74.6883138014785
        ]
      }
    },
    {
      "type": "Feature",
      "properties": {
        "norad_id": 31321,
        "name": "FENGYUN 1C DEB",
        "group": "fengyun-1c-debris",
        "lat": 27.55907380549204,
        "lon": 57.09751636137499,
        "alt_km": 865.2321058948291,
        "timestamp": "2025-12-08T17:43:05.213047+00:00",
        "meta_object_name": "FENGYUN 1C DEB",
        "meta_object_id": "1999-025BPZ",
        "meta_epoch": "2025-11-28T23:11:37.489632",
        "meta_mean_motion": 14.13809948,
        "meta_eccentricity": 0.00293651,
        "meta_inclination": 98.7348,
        "meta_ra_of_asc_node": 52.1537,
        "meta_arg_of_pericenter": 217.1862,
        "meta_mean_anomaly": 142.7277,
        "meta_ephemeris_type": 0,
        "meta_classification_type": "U",
        "meta_norad_cat_id": 31321,
        "meta_element_set_no": 999,
        "meta_rev_at_epoch": 57189,
        "meta_bstar": 0.00017233355,
        "meta_mean_motion_dot": 2.84e-06,
        "meta_mean_motion_ddot": 0,
        "tle_line1": "1 31321U 99025BPZ 25332.96640613  .00000284  00000+0  17233-3 0  9997",
        "tle_line2": "2 31321  98.7348  52.1537 0029365 217.1862 142.7277 14.13809948571893"
      },
      "geometry": {
        "type": "Point",
        "coordinates": [
          57.09751636137499,
          27.55907380549204
        ]
      }
    },
    {
      "type": "Feature",
      "properties": {
        "norad_id": 31322,
        "name": "FENGYUN 1C DEB",
        "group": "fengyun-1c-debris",
        "lat": -69.22994808882157,
        "lon": 70.36665084799839,
        "alt_km": 997.7712511376358,
        "timestamp": "2025-12-08T17:43:05.213058+00:00",
        "meta_object_name": "FENGYUN 1C DEB",
        "meta_object_id": "1999-025BQA",
        "meta_epoch": "2025-12-07T10:39:23.880096",
        "meta_mean_motion": 13.72993724,
        "meta_eccentricity": 0.02387912,
        "meta_inclination": 98.574,
        "meta_ra_of_asc_node": 45.7668,
        "meta_arg_of_pericenter": 24.4081,
        "meta_mean_anomaly": 353.7354,
        "meta_ephemeris_type": 0,
        "meta_classification_type": "U",
        "meta_norad_cat_id": 31322,
        "meta_element_set_no": 999,
        "meta_rev_at_epoch": 62203,
        "meta_bstar": 0.00031634654,
        "meta_mean_motion_dot": 3.21e-06,
        "meta_mean_motion_ddot": 0,
        "tle_line1": "1 31322U 99025BQA 25341.44402639  .00000321  00000+0  31635-3 0  9999",
        "tle_line2": "2 31322  98.5740  45.7668 0238791  24.4081 353.7354 13.72993724622031"
      },
      "geometry": {
        "type": "Point",
        "coordinates": [
          70.36665084799839,
          -69.22994808882157
        ]
      }
    }
  ]
}